GPS BIIR-2  (PRN 13)    
1 24876U 97035A   24175.26056737  .00000033  00000+0  00000+0 0  9990
2 24876  55.6727 126.8951 0080147  52.2355 308.4487  2.00565470197432
GPS BIIR-4  (PRN 20)    
1 26360U 00025A   24175.65450580 -.00000050  00000+0  00000+0 0  9990
2 26360  54.6691  48.6176 0038024 214.7064 154.1671  2.00578317176768
GPS BIIR-5  (PRN 22)    
1 26407U 00040A   24175.60109743  .00000046  00000+0  00000+0 0  9990
2 26407  55.0634 243.9299 0144796 294.6472 239.0623  2.00560378175422
GPS BIIR-8  (PRN 16)    
1 27663U 03005A   24175.66003359  .00000046  00000+0  00000+0 0  9991
2 27663  55.1019 243.7387 0136424  47.3834 305.0005  2.00574424156799
GPS BIIR-9  (PRN 21)    
1 27704U 03010A   24175.95354534 -.00000069  00000+0  00000+0 0  9995
2 27704  55.0978 353.5174 0253202 327.7486  94.8731  2.00563162155609
GPS BIIR-11 (PRN 19)    
1 28190U 04009A   24176.17090277 -.00000043  00000+0  00000+0 0  9992
2 28190  55.4485 304.7612 0098062 148.5465  11.6814  2.00559006148476
GPS BIIR-13 (PRN 02)    
1 28474U 04045A   24175.87517802 -.00000069  00000+0  00000+0 0  9999
2 28474  55.4263 353.9417 0161768 292.6464  59.4915  2.00561170143919
GPS BIIRM-1 (PRN 17)    
1 28874U 05038A   24176.10762737 -.00000040  00000+0  00000+0 0  9991
2 28874  55.4945 302.2254 0136194 284.1833 214.2901  2.00554854137322
GPS BIIRM-2 (PRN 31)    
1 29486U 06042A   24175.30638385  .00000087  00000+0  00000+0 0  9999
2 29486  54.6793 180.0440 0103343  38.2453 142.3067  2.00555397129877
GPS BIIRM-3 (PRN 12)    
1 29601U 06052A   24176.47893717  .00000041  00000+0  00000+0 0  9990
2 29601  55.1324 242.6841 0084886  83.1808 277.8729  2.00568158128951
GPS BIIRM-4 (PRN 15)    
1 32260U 07047A   24175.78358660  .00000011  00000+0  00000+0 0  9993
2 32260  53.6103 109.9770 0155416  75.4283 286.2670  2.00563629122309
GPS BIIRM-5 (PRN 29)    
1 32384U 07062A   24175.84477751 -.00000041  00000+0  00000+0 0  9991
2 32384  55.6343 303.0993 0028655 151.9818  20.7433  2.00575176121000
GPS BIIRM-6 (PRN 07)    
1 32711U 08012A   24175.20424671  .00000087  00000+0  00000+0 0  9993
2 32711  54.4519 178.8096 0188226 239.1930 118.9614  2.00568276119239
GPS BIIRM-8 (PRN 05)    
1 35752U 09043A   24175.69549128 -.00000043  00000+0  00000+0 0  9997
2 35752  55.6784  56.0241 0056977  72.2385 298.4092  2.00568709108851
GPS BIIF-1  (PRN 25)    
1 36585U 10022A   24175.76462222  .00000052  00000+0  00000+0 0  9997
2 36585  54.4427 237.7347 0114087  61.9503 119.6473  2.00551603103088
GPS BIIF-3  (PRN 24)    
1 38833U 12053A   24174.88338123  .00000083  00000+0  00000+0 0  9999
2 38833  53.5182 173.2363 0152036  55.8359 305.6069  2.00558694 84918
GPS BIIF-4  (PRN 27)    
1 39166U 13023A   24175.24489525 -.00000037  00000+0  00000+0 0  9991
2 39166  55.1077 298.3382 0123832  44.9227 316.0794  2.00562728 81364
GPS BIIF-5  (PRN 30)    
1 39533U 14008A   24175.24550116  .00000085  00000+0  00000+0 0  9990
2 39533  53.6009 178.8198 0073278 220.7736 138.6961  2.00568791 75165
GPS BIIF-6  (PRN 06)    
1 39741U 14026A   24175.52270102 -.00000066  00000+0  00000+0 0  9996
2 39741  56.7101 359.6218 0030969 316.8152  42.9677  2.00567887 74013
GPS BIIF-7  (PRN 09)    
1 40105U 14045A   24175.11741161  .00000018  00000+0  00000+0 0  9992
2 40105  54.9335 117.3719 0025747 115.0771 245.1591  2.00566674 71558
GPS BIIF-8  (PRN 03)    
1 40294U 14068A   24175.98736378 -.00000040  00000+0  00000+0 0  9991
2 40294  56.4263  58.9748 0054101  62.4066 298.2030  2.00560149 70685
GPS BIIF-9  (PRN 26)    
1 40534U 15013A   24175.12118409  .00000060  00000+0  00000+0 0  9995
2 40534  53.3413 234.1520 0087835  29.7396 330.8529  2.00565091 67305
GPS BIIF-10 (PRN 08)    
1 40730U 15033A   24175.28297831 -.00000035  00000+0  00000+0 0  9992
2 40730  54.5908 296.8071 0094005  19.7293 340.6414  2.00566600 65478
GPS BIIF-11 (PRN 10)    
1 41019U 15062A   24175.34202288 -.00000040  00000+0  00000+0 0  9990
2 41019  56.4061  58.8531 0095256 224.9388 134.3446  2.00562520 63312
GPS BIIF-12 (PRN 32)    
1 41328U 16007A   24175.42242229  .00000021  00000+0  00000+0 0  9999
2 41328  55.1286 118.2033 0079873 238.9284 120.2566  2.00561564 61328
GPS BIII-1  (PRN 04)    
1 43873U 18109A   24175.31283559  .00000024  00000+0  00000+0 0  9993
2 43873  55.2997 120.7868 0029191 195.1137 337.1623  2.00556223 40559
GPS BIII-2  (PRN 18)    
1 44506U 19056A   24175.94674834 -.00000068  00000+0  00000+0 0  9997
2 44506  55.8404 359.8166 0042891 188.0739 343.8798  2.00571709 35567
GPS BIII-3  (PRN 23)    
1 45854U 20041A   24175.57667317 -.00000042  00000+0  00000+0 0  9999
2 45854  56.1272  57.1762 0043131 192.7169   6.9845  2.00558504 29525
GPS BIII-4  (PRN 14)    
1 46826U 20078A   24175.56569642  .00000050  00000+0  00000+0 0  9998
2 46826  54.1775 240.1499 0046801 197.2782 333.0642  2.00560148 26983
GPS BIII-5  (PRN 11)    
1 48859U 21054A   24175.58505343 -.00000068  00000+0  00000+0 0  9991
2 48859  55.3661   1.4793 0015105 218.1451 150.8553  2.00557599 22249
GPS BIII-6  (PRN 28)    
1 55268U 23009A   24173.77007619  .00000095  00000+0  00000+0 0  9996
2 55268  55.0876 176.9876 0000773 101.9342  79.1218  2.00563973 10699
